{"type": "FeatureCollection", "features": [ {"type": "Feature", "properties": {"norad_id": 40701, "name": "GAOFEN-8", "group": "resource", "lat": -13.63031484362051, "lon": 176.0628858563757, "alt_km": 458.70591734829304, "timestamp": "2025-12-21T14:40:47.567963+00:00", "meta": {"OBJECT_NAME": "GAOFEN-8", "OBJECT_ID": "2015-030A", "EPOCH": "2025-12-21T06:56:10.593600", "MEAN_MOTION": 15.38802265, "ECCENTRICITY": 0.00120319, "INCLINATION": 97.6906, "RA_OF_ASC_NODE": 173.8467, "ARG_OF_PERICENTER": 109.7052, "MEAN_ANOMALY": 250.5491, "EPHEMERIS_TYPE": 0, "CLASSIFICATION_TYPE": "U", "NORAD_CAT_ID": 40701, "ELEMENT_SET_NO": 999, "REV_AT_EPOCH": 58402, "BSTAR": 7.6639679e-05, "MEAN_MOTION_DOT": 2.856e-05, "MEAN_MOTION_DDOT": 0}, "tle": {"line1": "1 40701U 15030A   25355.28901150  .00002856  00000+0  76640-4 0  9994", "line2": "2 40701  97.6906 173.8467 0012031 109.7052 250.5491 15.38802265584023"}}, "geometry": {"type": "Point", "coordinates": [176.0628858563757, -13.63031484362051]}}, {"type": "Feature", "properties": {"norad_id": 40718, "name": "CARBONITE 1 (CBNT-1)", "group": "resource", "lat": -64.68099804446692, "lon": -167.25417500176258, "alt_km": 636.0565650468952, "timestamp": "2025-12-21T14:40:47.567973+00:00", "meta": {"OBJECT_NAME": "CARBONITE 1 (CBNT-1)", "OBJECT_ID": "2015-032D", "EPOCH": "2025-12-21T06:52:44.788800", "MEAN_MOTION": 14.82781051, "ECCENTRICITY": 0.00150095, "INCLINATION": 97.6396, "RA_OF_ASC_NODE": 175.9537, "ARG_OF_PERICENTER": 153.3689, "MEAN_ANOMALY": 206.8299, "EPHEMERIS_TYPE": 0, "CLASSIFICATION_TYPE": "U", "NORAD_CAT_ID": 40718, "ELEMENT_SET_NO": 999, "REV_AT_EPOCH": 56297, "BSTAR": 0.00021625411, "MEAN_MOTION_DOT": 1.701e-05, "MEAN_MOTION_DDOT": 0}, "tle": {"line1": "1 40718U 15032D   25355.28662950  .00001701  00000+0  21625-3 0  9996", "line2": "2 40718  97.6396 175.9537 0015009 153.3689 206.8299 14.82781051562971"}}, "geometry": {"type": "Point", "coordinates": [-167.25417500176258, -64.68099804446692]}}, {"type": "Feature", "properties": {"norad_id": 40878, "name": "YAOGAN-27", "group": "resource", "lat": 73.33831650999477, "lon": -51.72173726231118, "alt_km": 1198.3966019581221, "timestamp": "2025-12-21T14:40:47.567983+00:00", "meta": {"OBJECT_NAME": "YAOGAN-27", "OBJECT_ID": "2015-040A", "EPOCH": "2025-12-21T06:59:35.719296", "MEAN_MOTION": 13.16059596, "ECCENTRICITY": 0.00075896, "INCLINATION": 100.1006, "RA_OF_ASC_NODE": 344.5246, "ARG_OF_PERICENTER": 265.692, "MEAN_ANOMALY": 94.3327, "EPHEMERIS_TYPE": 0, "CLASSIFICATION_TYPE": "U", "NORAD_CAT_ID": 40878, "ELEMENT_SET_NO": 999, "REV_AT_EPOCH": 49426, "BSTAR": -0.00075417195, "MEAN_MOTION_DOT": -3.29e-06, "MEAN_MOTION_DDOT": 0}, "tle": {"line1": "1 40878U 15040A   25355.29138564 -.00000329  00000+0 -75417-3 0  9997", "line2": "2 40878 100.1006 344.5246 0007589 265.6920  94.3327 13.16059596494262"}}, "geometry": {"type": "Point", "coordinates": [-51.72173726231118, 73.33831650999477]}}, {"type": "Feature", "properties": {"norad_id": 40894, "name": "GAOFEN-9 01", "group": "resource", "lat": -24.17440165001346, "lon": -149.27672060307066, "alt_km": 645.5743676954526, "timestamp": "2025-12-21T14:40:47.567993+00:00", "meta": {"OBJECT_NAME": "GAOFEN-9 01", "OBJECT_ID": "2015-047A", "EPOCH": "2025-12-21T05:39:40.074336", "MEAN_MOTION": 14.82441013, "ECCENTRICITY": 0.00276993, "INCLINATION": 97.6531, "RA_OF_ASC_NODE": 33.8241, "ARG_OF_PERICENTER": 6.9453, "MEAN_ANOMALY": 353.2139, "EPHEMERIS_TYPE": 0, "CLASSIFICATION_TYPE": "U", "NORAD_CAT_ID": 40894, "ELEMENT_SET_NO": 999, "REV_AT_EPOCH": 55382, "BSTAR": 0.00010258619, "MEAN_MOTION_DOT": 7.76e-06, "MEAN_MOTION_DDOT": 0}, "tle": {"line1": "1 40894U 15047A   25355.23588049  .00000776  00000+0  10259-3 0  9990", "line2": "2 40894  97.6531  33.8241 0027699   6.9453 353.2139 14.82441013553826"}}, "geometry": {"type": "Point", "coordinates": [-149.27672060307066, -24.17440165001346]}}, {"type": "Feature", "properties": {"norad_id": 41026, "name": "YAOGAN-28", "group": "resource", "lat": -73.19366495817069, "lon": -71.89050811541792, "alt_km": 507.6633238054774, "timestamp": "2025-12-21T14:40:47.568003+00:00", "meta": {"OBJECT_NAME": "YAOGAN-28", "OBJECT_ID": "2015-064A", "EPOCH": "2025-12-21T07:15:54.511200", "MEAN_MOTION": 15.24480612, "ECCENTRICITY": 0.00126382, "INCLINATION": 97.2813, "RA_OF_ASC_NODE": 132.854, "ARG_OF_PERICENTER": 98.8031, "MEAN_ANOMALY": 261.4638, "EPHEMERIS_TYPE": 0, "CLASSIFICATION_TYPE": "U", "NORAD_CAT_ID": 41026, "ELEMENT_SET_NO": 999, "REV_AT_EPOCH": 56355, "BSTAR": 0.00024761201, "MEAN_MOTION_DOT": 6.027e-05, "MEAN_MOTION_DDOT": 0}, "tle": {"line1": "1 41026U 15064A   25355.30271425  .00006027  00000+0  24761-3 0  9990", "line2": "2 41026  97.2813 132.8540 0012638  98.8031 261.4638 15.24480612563554"}}, "geometry": {"type": "Point", "coordinates": [-71.89050811541792, -73.19366495817069]}}, {"type": "Feature", "properties": {"norad_id": 41038, "name": "YAOGAN-29", "group": "resource", "lat": 71.23896194755004, "lon": -136.6602493628114, "alt_km": 613.1461793216813, "timestamp": "2025-12-21T14:40:47.568013+00:00", "meta": {"OBJECT_NAME": "YAOGAN-29", "OBJECT_ID": "2015-069A", "EPOCH": "2025-12-21T07:43:16.957056", "MEAN_MOTION": 14.8289238, "ECCENTRICITY": 5.581e-05, "INCLINATION": 98.0209, "RA_OF_ASC_NODE": 18.5212, "ARG_OF_PERICENTER": 169.9941, "MEAN_ANOMALY": 190.1284, "EPHEMERIS_TYPE": 0, "CLASSIFICATION_TYPE": "U", "NORAD_CAT_ID": 41038, "ELEMENT_SET_NO": 999, "REV_AT_EPOCH": 54426, "BSTAR": 6.6164414e-05, "MEAN_MOTION_DOT": 4.82e-06, "MEAN_MOTION_DDOT": 0}, "tle": {"line1": "1 41038U 15069A   25355.32172404  .00000482  00000+0  66164-4 0  9990", "line2": "2 41038  98.0209  18.5212 0000558 169.9941 190.1284 14.82892380544263"}}, "geometry": {"type": "Point", "coordinates": [-136.6602493628114, 71.23896194755004]}}, {"type": "Feature", "properties": {"norad_id": 41167, "name": "KENT RIDGE 1", "group": "resource", "lat": -12.64467679341294, "lon": 88.2638314576394, "alt_km": 495.3491378907165, "timestamp": "2025-12-21T14:40:47.568024+00:00", "meta": {"OBJECT_NAME": "KENT RIDGE 1", "OBJECT_ID": "2015-077B", "EPOCH": "2025-12-21T02:20:52.336608", "MEAN_MOTION": 15.21694895, "ECCENTRICITY": 0.0008535, "INCLINATION": 14.9784, "RA_OF_ASC_NODE": 149.1191, "ARG_OF_PERICENTER": 249.0242, "MEAN_ANOMALY": 110.9166, "EPHEMERIS_TYPE": 0, "CLASSIFICATION_TYPE": "U", "NORAD_CAT_ID": 41167, "ELEMENT_SET_NO": 999, "REV_AT_EPOCH": 55391, "BSTAR": 0.00011767665, "MEAN_MOTION_DOT": 3.496e-05, "MEAN_MOTION_DDOT": 0}, "tle": {"line1": "1 41167U 15077B   25355.09782797  .00003496  00000+0  11768-3 0  9995", "line2": "2 41167  14.9784 149.1191 0008535 249.0242 110.9166 15.21694895553911"}}, "geometry": {"type": "Point", "coordinates": [88.2638314576394, -12.64467679341294]}}, {"type": "Feature", "properties": {"norad_id": 41194, "name": "GAOFEN-4", "group": "resource", "lat": -0.06089430012987145, "lon": 56.309916957259865, "alt_km": 35791.95069805295, "timestamp": "2025-12-21T14:40:47.568036+00:00", "meta": {"OBJECT_NAME": "GAOFEN-4", "OBJECT_ID": "2015-083A", "EPOCH": "2025-12-19T15:27:26.627616", "MEAN_MOTION": 1.00273138, "ECCENTRICITY": 0.0002945, "INCLINATION": 0.1878, "RA_OF_ASC_NODE": 81.7841, "ARG_OF_PERICENTER": 93.4275, "MEAN_ANOMALY": 250.8523, "EPHEMERIS_TYPE": 0, "CLASSIFICATION_TYPE": "U", "NORAD_CAT_ID": 41194, "ELEMENT_SET_NO": 999, "REV_AT_EPOCH": 3672, "BSTAR": 0, "MEAN_MOTION_DOT": -3.11e-06, "MEAN_MOTION_DDOT": 0}, "tle": {"line1": "1 41194U 15083A   25353.64405819 -.00000311  00000+0  00000+0 0  9995", "line2": "2 41194   0.1878  81.7841 0002945  93.4275 250.8523  1.00273138 36722"}}, "geometry": {"type": "Point", "coordinates": [56.309916957259865, -0.06089430012987145]}}, {"type": "Feature", "properties": {"norad_id": 41240, "name": "JASON-3", "group": "resource", "lat": 29.678859912151033, "lon": 153.850917724691, "alt_km": 1311.392616519136, "timestamp": "2025-12-21T14:40:47.568048+00:00", "meta": {"OBJECT_NAME": "JASON-3", "OBJECT_ID": "2016-002A", "EPOCH": "2025-12-21T05:11:22.678944", "MEAN_MOTION": 12.8762689, "ECCENTRICITY": 0.00072334, "INCLINATION": 66.04, "RA_OF_ASC_NODE": 140.0032, "ARG_OF_PERICENTER": 271.3233, "MEAN_ANOMALY": 88.6957, "EPHEMERIS_TYPE": 0, "CLASSIFICATION_TYPE": "U", "NORAD_CAT_ID": 41240, "ELEMENT_SET_NO": 999, "REV_AT_EPOCH": 46433, "BSTAR": -1.645428e-05, "MEAN_MOTION_DOT": -6.6e-07, "MEAN_MOTION_DDOT": 0}, "tle": {"line1": "1 41240U 16002A   25355.21623471 -.00000066  00000+0 -16454-4 0  9993", "line2": "2 41240  66.0400 140.0032 0007233 271.3233  88.6957 12.87626890464337"}}, "geometry": {"type": "Point", "coordinates": [153.850917724691, 29.678859912151033]}}, {"type": "Feature", "properties": {"norad_id": 41335, "name": "SENTINEL-3A", "group": "resource", "lat": 4.246203187028816, "lon": -118.85359600651154, "alt_km": 804.9355033532065, "timestamp": "2025-12-21T14:40:47.568058+00:00", "meta": {"OBJECT_NAME": "SENTINEL-3A", "OBJECT_ID": "2016-011A", "EPOCH": "2025-12-21T05:26:38.371200", "MEAN_MOTION": 14.26733775, "ECCENTRICITY": 8.994e-05, "INCLINATION": 98.6303, "RA_OF_ASC_NODE": 60.1209, "ARG_OF_PERICENTER": 94.6191, "MEAN_ANOMALY": 265.5092, "EPHEMERIS_TYPE": 0, "CLASSIFICATION_TYPE": "U", "NORAD_CAT_ID": 41335, "ELEMENT_SET_NO": 999, "REV_AT_EPOCH": 51268, "BSTAR": 6.4208402e-05, "MEAN_MOTION_DOT": 1.12e-06, "MEAN_MOTION_DDOT": 0}, "tle": {"line1": "1 41335U 16011A   25355.22683300  .00000112  00000+0  64208-4 0  9996", "line2": "2 41335  98.6303  60.1209 0000899  94.6191 265.5092 14.26733775512687"}}, "geometry": {"type": "Point", "coordinates": [-118.85359600651154, 4.246203187028816]}}]}